ONEWEB-0631             
1 55171U 23004AH  23059.33334491  .00009304  00000+0  16968-2 0  9994
2 55171  86.6243 264.1739 0017330  59.5158  87.9165 14.65824839  7451
ONEWEB-0631             
1 55171U 23004AH  23059.58334491 -.00005689  00000+0 -10464-2 0  9990
2 55171  86.6243 264.0709 0017217  58.7216 327.0874 14.65846763  1300
ONEWEB-0631             
1 55171U 23004AH  23059.91667824  .00048847  00000+0  88774-2 0  9996
2 55171  86.6243 263.9325 0017228  57.4611 286.2206 14.65809809  1304
ONEWEB-0631             
1 55171U 23004AH  23060.58334491 -.00011953  00000+0 -21955-2 0  9990
2 55171  86.6241 263.6589 0017174  55.7768 203.5990 14.65850237  7630
ONEWEB-0631             
1 55171U 23004AH  23060.91667824  .00055148  00000+0  10014-1 0  9991
2 55171  86.6240 263.5206 0017210  54.4268 162.8256 14.65808099  1305
ONEWEB-0631             
1 55171U 23004AH  23061.83334491  .00009338  00000+0  17028-2 0  9997
2 55171  86.6239 263.1431 0017063  51.5583 319.8006 14.65830042  1303
ONEWEB-0631             
1 55171U 23004AH  23062.51389044  .00001086  00000+0  19444-3 0  9994
2 55171  86.6238 262.8632 0017012  49.3485 310.9204 14.65840918  7920
ONEWEB-0631             
1 55171U 23004AH  23062.92347758  .00001172  00000+0  21005-3 0  9997
2 55171  86.6238 262.6944 0016971  48.0899 312.1758 14.65842751  7983
